IRIDIUM 155             
1 43573U 18061E   19104.39622818  .00000092  00000-0  25692-4 0  9991
2 43573  86.3949  71.9593 0001399  77.0838 283.0514 14.34216844 37721
IRIDIUM 154             
1 43574U 18061F   19104.44697576  .00000070  00000-0  18065-4 0  9993
2 43574  86.3958  71.9483 0002592  84.2674 275.8817 14.34215546 37772
IRIDIUM 163             
1 43575U 18061G   19104.42794857  .00000084  00000-0  22763-4 0  9997
2 43575  86.3956  71.9509 0002657 103.9724 256.1767 14.34217527 37741
IRIDIUM 156             
1 43576U 18061H   19104.40258367  .00000092  00000-0  25839-4 0  9993
2 43576  86.3956  71.9658 0002010  98.2787 261.8637 14.34218857 37729
IRIDIUM 164             
1 43577U 18061J   19104.45332288  .00000084  00000-0  22999-4 0  9999
2 43577  86.3958  71.9453 0002481  89.1192 271.0288 14.34219905 37782
IRIDIUM 159             
1 43578U 18061K   19104.42160078  .00000083  00000-0  22689-4 0  9998
2 43578  86.3955  71.9502 0002428  86.4924 273.6549 14.34215962 37742
IRIDIUM 180             
1 43922U 19002A   19104.70018074  .00000066  00000-0  16546-4 0  9992
2 43922  86.4018   8.6707 0003547  87.6083 272.5519 14.34218282 13435
IRIDIUM 176             
1 43923U 19002B   19104.66401827  .00000158  00000-0  21191-4 0  9994
2 43923  86.6151   8.7019 0002272  93.2724 266.8753 14.72254950 13690
IRIDIUM 168             
1 43924U 19002C   19104.69382983  .00000066  00000-0  16609-4 0  9995
2 43924  86.4021   8.6765 0002536  82.8988 277.2496 14.34219733 13374
IRIDIUM 173             
1 43925U 19002D   19104.68113820  .00000075  00000-0  19800-4 0  9993
2 43925  86.4018   8.6771 0002368  85.3404 274.8062 14.34220198 13360
IRIDIUM 169             
1 43926U 19002E   19104.66933241  .00000091  00000-0  23650-4 0  9995
2 43926  87.4093  16.4993 0002394  14.1692 345.9574 14.38616396 13479
IRIDIUM 172             
1 43927U 19002F   19104.67480415  .00000077  00000-0  20393-4 0  9992
2 43927  86.4018   8.6794 0002558  85.2626 274.8861 14.34218244 13369
IRIDIUM 175             
1 43928U 19002G   19104.72578081  .00000160  00000-0  21391-4 0  9998
2 43928  86.6136   8.6528 0001934  58.5874 301.5532 14.72243949 13694
IRIDIUM 171             
1 43929U 19002H   19104.72554970  .00000074  00000-0  19443-4 0  9999
2 43929  86.4027   8.6733 0002460  83.0548 277.0928 14.34217081 13362
IRIDIUM 170             
1 43930U 19002J   19104.67018887  .00000160  00000-0  21471-4 0  9997
2 43930  86.6151   8.7071 0001863  86.7198 273.4232 14.72255034 13705
IRIDIUM 167             
1 43931U 19002K   19104.71920188  .00000011  00000-0 -33100-5 0  9998
2 43931  86.4018   8.6602 0003423  84.6511 275.5075 14.34215969 13366
